[{"OBJECT_NAME":"STARLINK-4087","OBJECT_ID":"2022-083AA","EPOCH":"2026-03-09T13:55:03.199296","MEAN_MOTION":15.08837165,"ECCENTRICITY":0.0001213,"INCLINATION":53.2174,"RA_OF_ASC_NODE":164.4883,"ARG_OF_PERICENTER":92.4502,"MEAN_ANOMALY":267.6629,"EPHEMERIS_TYPE":0,"CLASSIFICATION_TYPE":"U","NORAD_CAT_ID":53156,"ELEMENT_SET_NO":999,"REV_AT_EPOCH":20134,"BSTAR":-1.7038e-5,"MEAN_MOTION_DOT":-5.59e-6,"MEAN_MOTION_DDOT":0},{"OBJECT_NAME":"CZ-6A DEB","OBJECT_ID":"2022-151AEC","EPOCH":"2026-03-09T16:07:43.414464","MEAN_MOTION":15.01082395,"ECCENTRICITY":0.0040922,"INCLINATION":98.632,"RA_OF_ASC_NODE":144.2747,"ARG_OF_PERICENTER":190.1613,"MEAN_ANOMALY":169.8786,"EPHEMERIS_TYPE":0,"CLASSIFICATION_TYPE":"U","NORAD_CAT_ID":56604,"ELEMENT_SET_NO":999,"REV_AT_EPOCH":16341,"BSTAR":0.005850488,"MEAN_MOTION_DOT":0.00076879,"MEAN_MOTION_DDOT":0}]
